[
    {
        "Altitude(m)": 622200.1441325457,
        "Argument of Periapsis(deg)": 0.0,
        "Eccentricity": 0.0,
        "Inclination(deg)": 60.0,
        "Latitude(deg)": -52.16264015868546,
        "Longitude(deg)": -47.63916206723751,
        "Mean Anomaly(deg)": -65.4545,
        "RAAN(deg)": 100.0,
        "Satellite Name": "Test1 458",
        "Satellite Number": 458,
        "Semi-Major Axis(m)": 6980739.136638005,
        "Time(s)": 0
    },
    {
        "Altitude(m)": 622058.3116699666,
        "Argument of Periapsis(deg)": 0.00010418945913296404,
        "Eccentricity": 0.0,
        "Inclination(deg)": 60.0,
        "Latitude(deg)": -51.799388917060824,
        "Longitude(deg)": -46.871103571421806,
        "Mean Anomaly(deg)": -64.8343938545381,
        "RAAN(deg)": 99.99957995086025,
        "Satellite Name": "Test1 458",
        "Satellite Number": 458,
        "Semi-Major Axis(m)": 6980739.136638005,
        "Time(s)": 10
    }
]